[{"OBJECT_NAME":"ONEWEB-0403","OBJECT_ID":"2021-132Q","EPOCH":"2026-03-09T17:15:59.224608","MEAN_MOTION":13.18687095,"ECCENTRICITY":0.00017767,"INCLINATION":87.9251,"RA_OF_ASC_NODE":355.2075,"ARG_OF_PERICENTER":75.8579,"MEAN_ANOMALY":284.2751,"EPHEMERIS_TYPE":0,"CLASSIFICATION_TYPE":"U","NORAD_CAT_ID":50483,"ELEMENT_SET_NO":999,"REV_AT_EPOCH":20848,"BSTAR":0.00012705755,"MEAN_MOTION_DOT":6.3e-7,"MEAN_MOTION_DDOT":0},{"OBJECT_NAME":"DELTA 1 DEB","OBJECT_ID":"1975-052JV","EPOCH":"2026-03-08T10:29:44.410848","MEAN_MOTION":13.40660442,"ECCENTRICITY":0.0110874,"INCLINATION":99.0097,"RA_OF_ASC_NODE":49.2224,"ARG_OF_PERICENTER":268.9438,"MEAN_ANOMALY":244.4381,"EPHEMERIS_TYPE":0,"CLASSIFICATION_TYPE":"U","NORAD_CAT_ID":21969,"ELEMENT_SET_NO":999,"REV_AT_EPOCH":68630,"BSTAR":0.0013952854,"MEAN_MOTION_DOT":7.57e-6,"MEAN_MOTION_DDOT":0}]
